{
  "norad_id": 63884,
  "name": "STARLINK-33943",
  "history": [
    {
      "epoch": "2026-03-28T16:33:17.805888",
      "apogee_km": 574.6954952136111,
      "perigee_km": 569.4511445146554,
      "latitude_deg": -24.945392903710125,
      "longitude_deg": -85.38021568022668,
      "semi_major_axis_km": 6950.210319864133,
      "eccentricity": 0.00037728,
      "inclination_deg": 70.0021,
      "raan_deg": 186.3731,
      "arg_perigee_deg": 269.4319,
      "mean_anomaly_deg": 90.6408,
      "mean_motion_rev_day": 14.98324364
    }
  ]
}