{"fetched_at":"2026-03-29T16:36:15Z","count":15609,"tles":[{"name":"STARLINK-33943","line1":"1 63884U 25094W   26087.68978942  .00009367  00000+0  79183-3 0  9990","line2":"2 63884  70.0021 186.3731 0003772 269.4319  90.6408 14.98324364 50054","category":"Starlink"}]}